NORAD_CAT_ID,OBJECT_NAME,OBJECT_TYPE,EPOCH,MEAN_MOTION,ECCENTRICITY,INCLINATION,RA_OF_ASC_NODE,ARG_OF_PERICENTER,MEAN_ANOMALY,BSTAR,MEAN_MOTION_DOT,MEAN_MOTION_DDOT,TLE_LINE0,TLE_LINE1,TLE_LINE2,SEMIMAJOR_AXIS,PERIOD,APOGEE,PERIGEE,DECAYED
52835.0,STARLINK-4080,PAYLOAD,2024-08-17 22:53:43,15.08857522,4.6e-05,53.2174,67.2758,94.6646,265.4398,0.0018124,0.00028688,0.0,0 STARLINK-4080,1 52835U 22062F   24230.95397166  .00028688  00000-0  18124-2 0  9992,2 52835  53.2174  67.2758 0000460  94.6646 265.4398 15.08857522119929,6917.827,95.436,540.01,539.374,0.0
52835.0,STARLINK-4080,PAYLOAD,2024-08-18 19:33:43,15.08850654,0.0001282,53.216,63.41,98.3968,261.717,0.00055108,8.496e-05,0.0,0 STARLINK-4080,1 52835U 22062F   24231.81509191  .00008496  00000-0  55108-3 0  9990,2 52835  53.2160  63.4100 0001282  98.3968 261.7170 15.08850654120056,6917.848,95.437,540.6,538.826,0.0
52835.0,STARLINK-4080,PAYLOAD,2024-08-19 13:02:58,15.08839996,0.0001347,53.2156,60.131,120.689,239.4235,0.00012471,1.697e-05,0.0,0 STARLINK-4080,1 52835U 22062F   24232.54373310  .00001697  00000-0  12471-3 0  9995,2 52835  53.2156  60.1310 0001347 120.6890 239.4235 15.08839996120165,6917.88,95.438,540.677,538.814,0.0
52835.0,STARLINK-4080,PAYLOAD,2024-08-20 04:56:50,15.08842032,0.0001264,53.2164,57.1643,91.2324,268.8813,0.00017384,2.48e-05,0.0,0 STARLINK-4080,1 52835U 22062F   24233.20613505  .00002480  00000-0  17384-3 0  9991,2 52835  53.2164  57.1643 0001264  91.2324 268.8813 15.08842032120266,6917.874,95.437,540.614,538.865,0.0
52835.0,STARLINK-4080,PAYLOAD,2024-08-20 17:39:55,15.08846634,0.0001337,53.2169,54.7851,81.2312,278.8831,0.00025067,3.704e-05,0.0,0 STARLINK-4080,1 52835U 22062F   24233.73605378  .00003704  00000-0  25067-3 0  9995,2 52835  53.2169  54.7851 0001337  81.2312 278.8831 15.08846634120344,6917.86,95.437,540.65,538.8,0.0
52835.0,STARLINK-4080,PAYLOAD,2024-08-21 11:09:09,15.08840752,0.0002355,53.2173,51.5079,142.995,217.1205,7.0471e-05,8.33e-06,0.0,0 STARLINK-4080,1 52835U 22062F   24234.46469278  .00000833  00000-0  70471-4 0  9993,2 52835  53.2173  51.5079 0002355 142.9950 217.1205 15.08840752120458,6917.878,95.438,541.372,538.114,0.0
52835.0,STARLINK-4080,PAYLOAD,2024-08-21 20:41:28,15.08841605,0.0001344,53.2174,49.7294,83.0345,277.0799,0.00014547,2.028e-05,0.0,0 STARLINK-4080,1 52835U 22062F   24234.86213651  .00002028  00000-0  14547-3 0  9998,2 52835  53.2174  49.7294 0001344  83.0345 277.0799 15.08841605120515,6917.875,95.437,540.67,538.811,0.0
